satname,norad_id,inclination_deg,eccentricity,mean_motion_rev_per_day,perigee_km,apogee_km,l1,l2
STARLINK-1152,45096,53.0444,0.0005599,15.28661738,475.97212797653174,483.6516591475429,1 45096U 20006BE  25352.65211148  .00048355  00000+0  17125-2 0  9999,2 45096  53.0444 225.8301 0005599  64.6336 295.5242 15.28661738325155
STARLINK-1184,45098,53.0543,0.0001984,15.06838874,544.4930764634255,547.2405211707955,1 45098U 20006BG  25352.43802542  .00015644  00000+0  10543-2 0  9993,2 45098  53.0543 251.3594 0001984 115.4384 244.6811 15.06838874324774
STARLINK-1193,45100,53.054,0.0001426,15.06409395,546.1952131677435,548.170314364369,1 45100U 20006BJ  25352.17013250  .00002921  00000+0  21484-3 0  9999,2 45100  53.0540 252.5739 0001426  90.8537 269.2615 15.06409395324739
STARLINK-1143,45179,53.0533,0.0001,15.47111569,424.50037059672013,425.8610341371941,1 45179U 20012B   25352.42390670  .00085463  00000+0  16493-2 0  9999,2 45179  53.0533   2.4558 0001000 211.9458 148.1489 15.47111569323285
STARLINK-1202,45183,53.0549,0.0001232,15.0640415,546.3456374398447,548.0520401905287,1 45183U 20012F   25352.43183013 -.00000968  00000+0 -46125-4 0  9992,2 45183  53.0549  51.4021 0001232  91.7699 268.3431 15.06404150322595
STARLINK-1216,45185,53.0557,0.0001292,15.06397874,546.3233179542021,548.1128297052792,1 45185U 20012H   25352.55715817 -.00001391  00000+0 -74532-4 0  9994,2 45185  53.0557  50.8366 0001292  94.3205 265.7932 15.06397874322556
STARLINK-1225,45187,53.0562,0.0001294,15.06409408,546.2865875510688,548.0788602956209,1 45187U 20012K   25352.44288645 -.00002319  00000+0 -13682-3 0  9997,2 45187  53.0562  51.3486 0001294  93.3304 266.7833 15.06409408322585
STARLINK-1230,45189,53.0557,0.0001188,15.06407536,546.3657326151479,548.0111899447484,1 45189U 20012M   25352.57926753 -.00000363  00000+0 -55017-5 0  9999,2 45189  53.0557  50.7401 0001188  90.0196 270.0929 15.06407536319834
STARLINK-1234,45190,53.0504,0.0009114,15.44223617,427.4520036146205,439.8685476886776,1 45190U 20012N   25352.66667824  .00053621  00000+0  11489-2 0  9997,2 45190  53.0504 355.9502 0009114  19.0144 153.4314 15.44223617  5901
STARLINK-1269,45197,53.055,0.0001175,15.06400954,546.3949059552187,548.0223621792238,1 45197U 20012V   25352.59032517 -.00001908  00000+0 -10920-3 0  9994,2 45197  53.0550  50.6875 0001175  83.1929 276.9193 15.06400954322584
STARLINK-1154,45198,53.055,0.0001561,15.06390573,546.1593990661931,548.3215019062363,1 45198U 20012W   25352.38206504 -.00005624  00000+0 -35903-3 0  9998,2 45198  53.0550  31.6239 0001561  82.6383 277.4783 15.06390573322806
STARLINK-1199,45201,53.0556,0.0001595,15.063961,546.1189159008736,548.3281059038518,1 45201U 20012Z   25352.39313034 -.00000136  00000+0  97720-5 0  9990,2 45201  53.0556  31.5747 0001595  92.4734 267.6438 15.06396100322862
STARLINK-1209,45206,53.0526,0.0009061,15.37201702,448.19769020489184,460.5795931727598,1 45206U 20012AE  25352.56942820  .00077057  00000+0  20714-2 0  9996,2 45206  53.0526 359.2125 0009061  19.8859 340.2495 15.37201702322386
STARLINK-1210,45207,53.0211,0.0003475,15.69604805,357.68628278928554,362.3693073218492,1 45207U 20012AF  25352.27385693  .00210367  00000+0  17045-2 0  9990,2 45207  53.0211 312.5739 0003475 148.5609 211.5616 15.69604805323963
STARLINK-1231,45212,53.0508,0.0002118,15.15382536,518.3564710279697,521.2784445362868,1 45212U 20012AL  25352.50141499  .00011793  00000+0  63252-3 0  9990,2 45212  53.0508  26.8996 0002118 176.3741 183.7267 15.15382536322895
STARLINK-1271,45217,53.055,0.0001366,15.06392648,546.2880851600285,548.1800965420489,1 45217U 20012AR  25352.37838640  .00000617  00000+0  60328-4 0  9996,2 45217  53.0550  31.6397 0001366  87.0465 273.0680 15.06392648322865
STARLINK-1191,45222,53.0559,0.000126,15.06400227,546.3382683854197,548.0834560466983,1 45222U 20012AW  25352.45394368  .00000918  00000+0  80526-4 0  9991,2 45222  53.0559  11.2993 0001260  86.0363 274.0770 15.06400227323152
STARLINK-1212,45223,53.0572,0.0001493,15.06402199,546.1708647947125,548.2387718616656,1 45223U 20012AX  25352.33976554 -.00001325  00000+0 -70043-4 0  9990,2 45223  53.0572  12.4691 0001493  93.4429 266.6730 15.06402199323130
STARLINK-1215,45225,53.0566,0.0001346,15.06390787,546.3076388837198,548.171950316826,1 45225U 20012AZ  25352.36180033 -.00000170  00000+0  74585-5 0  9996,2 45225  53.0566  11.7138 0001346  91.9800 268.1343 15.06390787323097
STARLINK-1221,45227,53.0686,0.0005747,15.38735765,445.9226599357935,453.7707444030675,1 45227U 20012BB  25352.54500154  .00011884  00000+0  31544-3 0  9997,2 45227  53.0686 293.1781 0005747 103.5162 256.6482 15.38735765324206
STARLINK-1222,45228,53.058,0.0001485,15.31636657,469.91173764517134,471.945910194876,1 45228U 20012BC  25352.66667824  .01922415  00000+0  56292-1 0  9996,2 45228  53.0580   8.8804 0001485  77.6130 353.3946 15.31636657  5667
STARLINK-1226,45229,53.0571,0.0001774,15.06400755,545.9806875493032,548.4378003966658,1 45229U 20012BD  25352.35811937 -.00001182  00000+0 -60478-4 0  9993,2 45229  53.0571  11.7304 0001774  96.0463 264.0728 15.06400755323031
STARLINK-1227,45230,53.0557,0.000136,15.06399454,546.2713837186811,548.1550789816083,1 45230U 20012BE  25352.35442347 -.00002275  00000+0 -13391-3 0  9995,2 45230  53.0557  11.7471 0001360  89.0004 271.1141 15.06399454323150
STARLINK-1246,45235,53.0554,0.0001328,15.06419096,546.2333535506032,548.0727105831202,1 45235U 20012BK  25352.43550058  .00001649  00000+0  12951-3 0  9991,2 45235  53.0554  51.3821 0001328  99.2543 260.8596 15.06419096322610
STARLINK-1270,45237,53.0542,0.0001363,15.15582934,518.2692812417308,520.1494978675237,1 45237U 20012BM  25352.66667824  .00977588  00000+0  47413-1 0  9991,2 45237  53.0542  10.1996 0001363  75.4571 154.4090 15.15582934  5809
STARLINK-1279,45360,53.0483,0.0005295,15.4216729,436.10411558089254,443.3242199675651,1 45360U 20019A   25352.60366101  .00094638  00000+0  21560-2 0  9995,2 45360  53.0483 127.3241 0005295 191.8723 168.2157 15.42167290318105
STARLINK-1301,45361,53.0481,0.0005427,15.45336751,426.6937887287331,434.0837626056418,1 45361U 20019B   25352.66667824  .00078258  00000+0  16068-2 0  9995,2 45361  53.0481 135.8163 0005427 188.2428 117.7517 15.45336751  5914
STARLINK-1306,45362,53.0359,0.0002449,15.91581971,296.22045606730717,299.4903571480627,1 45362U 20019C   25352.66667824  .00238594  32294-4  72724-3 0  9994,2 45362  53.0359 112.3704 0002449   5.2619 289.2418 15.91581971  5890
STARLINK-1262,45366,53.0548,0.0001368,15.06398179,546.2697506004051,548.1645274928487,1 45366U 20019G   25352.48343371  .00000634  00000+0  61425-4 0  9990,2 45366  53.0548 171.1641 0001368  88.3087 271.8059 15.06398179317499
STARLINK-1273,45367,53.0541,0.0001313,15.06401109,546.2988611957098,548.1174568344677,1 45367U 20019H   25352.24017403  .00001378  00000+0  11137-3 0  9999,2 45367  53.0541 172.2564 0001313  92.1156 267.9983 15.06401109317455
STARLINK-1276,45368,53.0536,0.000127,15.06394753,546.3481179750606,548.1071605934385,1 45368U 20019J   25352.21067321  .00001252  00000+0  10292-3 0  9993,2 45368  53.0536 172.3927 0001270  90.2996 269.8138 15.06394753317456
STARLINK-1277,45369,53.0537,0.0001489,15.06393481,546.2003504311433,548.2627251817021,1 45369U 20019K   25352.53511596  .00000151  00000+0  29016-4 0  9999,2 45369  53.0537 171.5606 0001489  94.0319 266.0840 15.06393481317496
STARLINK-1281,45370,53.054,0.0001245,15.0639417,546.3672179861796,548.0916342262808,1 45370U 20019L   25352.46500143  .00000390  00000+0  45071-4 0  9993,2 45370  53.0540 171.2527 0001245  90.8660 269.2472 15.06394170317496
STARLINK-1300,45374,53.0534,0.0001614,15.06402021,546.0876136137513,548.3231141288088,1 45374U 20019Q   25352.22173244  .00000275  00000+0  37393-4 0  9999,2 45374  53.0534 172.3397 0001614  94.8228 265.2945 15.06402021317456
STARLINK-1302,45375,53.0537,0.0001443,15.06396981,546.2214816218229,548.220139886007,1 45375U 20019R   25352.50186426  .00000558  00000+0  56364-4 0  9990,2 45375  53.0537 171.0840 0001443  93.1096 267.0058 15.06396981317490
STARLINK-1304,45376,53.0544,0.0001291,15.06400282,546.3166312617777,548.1047560362786,1 45376U 20019S   25352.52029451  .00000345  00000+0  42059-4 0  9997,2 45376  53.0544 170.9984 0001291  94.5666 265.5470 15.06400282317496
STARLINK-1305,45377,53.0503,0.0008325,15.38081517,446.096919314512,457.46873582741864,1 45377U 20019T   25352.61974599  .00073890  00000+0  19321-2 0  9999,2 45377  53.0503 158.6832 0008325 160.3228 199.8098 15.38081517317685
STARLINK-1319,45379,53.0511,0.0006743,15.4328719,431.82042666673533,441.0105321404599,1 45379U 20019V   25352.62190879  .00116362  00000+0  25433-2 0  9996,2 45379  53.0511 159.4608 0006743 168.6833 191.4325 15.43287190317672
STARLINK-1266,45383,53.0543,0.0001327,15.06392784,546.3146773388235,548.15267071571,1 45383U 20019Z   25352.60691233 -.00000183  00000+0  65936-5 0  9998,2 45383  53.0543 150.6156 0001327  89.9599 270.1542 15.06392784317783
STARLINK-1267,45384,53.0537,0.0002174,15.17277621,512.5741824478973,515.5709151597175,1 45384U 20019AA  25352.66667824  .01647668  00000+0  74977-1 0  9990,2 45384  53.0537 150.7340 0002174  91.0740  92.8822 15.17277621  5605
STARLINK-1272,45386,53.0503,0.0006165,15.41680106,436.9463340000693,445.3545153947216,1 45386U 20019AC  25352.59602108  .00105639  00000+0  24410-2 0  9992,2 45386  53.0503 137.9627 0006165 188.3734 171.7169 15.41680106317961
STARLINK-1274,45387,53.0312,0.0001306,15.35252862,459.27644533119656,461.0626109963541,1 45387U 20019AD  25352.60625772  .00087848  00000+0  25116-2 0  9992,2 45387  53.0312 127.1434 0001306 103.1627 256.9520 15.35252862318117
STARLINK-1280,45388,53.05,0.0008195,15.47012164,419.89657809382516,431.04769346736975,1 45388U 20019AE  25352.61424218  .00178859  00000+0  34098-2 0  9998,2 45388  53.0500 155.3253 0008195 154.8801 205.2606 15.47012164317718
